GLOBALSTAR M079 [+]     
1 37188U 10054A   22200.60155626 -.00000087  00000+0  95599-4 0  9990
2 37188  52.0030 137.5134 0000521  49.3042 122.0222 12.62271413542813
GLOBALSTAR M074 [+]     
1 37189U 10054B   22199.59855778 -.00000093  00000+0  60325-4 0  9997
2 37189  52.0005 140.0556 0000437  28.2005 142.5586 12.62268705542689
GLOBALSTAR M076 [+]     
1 37190U 10054C   22199.62478497 -.00000102  00000+0  10991-4 0  9997
2 37190  52.0021 140.0460 0000475  98.3014  73.8314 12.62275982542335
GLOBALSTAR M077 [+]     
1 37191U 10054D   22200.08234277 -.00000087  00000+0  91394-4 0  9995
2 37191  52.0075  95.2076 0000595  53.4338  96.2532 12.62265174543506
GLOBALSTAR M075 [+]     
1 37192U 10054E   22200.23698326 -.00000103  00000+0  36260-5 0  9993
2 37192  51.9923 181.0337 0000299  84.8679 288.2446 12.62267077542014
GLOBALSTAR M073 [+]     
1 37193U 10054F   22200.19112616 -.00000079  00000+0  13964-3 0  9998
2 37193  52.0065  94.1839 0000659  56.0485 108.3689 12.62266538543519
GLOBALSTAR M083 [+]     
1 37739U 11033A   22199.87371240 -.00000091  00000+0  73358-4 0  9992
2 37739  51.9874  45.3345 0001057  67.4261  34.7500 12.62268950512444
GLOBALSTAR M088 [+]     
1 37740U 11033B   22200.22702756 -.00000086  00000+0  98853-4 0  9997
2 37740  51.9745 310.6464 0000995 106.7664 281.6060 12.62264836508322
GLOBALSTAR M091 [+]     
1 37741U 11033C   22199.52472196 -.00000091  00000+0  69031-4 0  9992
2 37741  51.9991 274.4368 0000716 111.4388 263.1013 12.62266693508734
GLOBALSTAR M085 [+]     
1 37742U 11033D   22200.06873316 -.00000112  00000+0 -43219-4 0  9999
2 37742  51.9839 224.7604 0000274 124.3137 263.7927 12.62266944509809
GLOBALSTAR M081 [+]     
1 37743U 11033E   22199.56476932 -.00000100  00000+0  20797-4 0  9997
2 37743  51.9932 228.4251 0000367 123.1808  13.9313 12.62262570509397
GLOBALSTAR M089 [+]     
1 37744U 11033F   22199.69113144 -.00000105  00000+0 -86991-5 0  9990
2 37744  51.9905 182.4679 0000185 213.2699 317.6619 12.62267402510257
GLOBALSTAR M084 [+]     
1 38040U 11080A   22199.76324752 -.00000096  00000+0  45685-4 0  9991
2 38040  52.0022  48.9744 0000700  82.6499 355.9679 12.62267349488241
GLOBALSTAR M080 [+]     
1 38041U 11080B   22200.51421587 -.00000096  00000+0  45781-4 0  9999
2 38041  52.0072  47.9219 0000691  89.8312 282.2912 12.62267815488605
GLOBALSTAR M082 [+]     
1 38042U 11080C   22199.75583784 -.00000104  00000+0 -20697-5 0  9992
2 38042  52.0093   5.5639 0001100  66.0810  38.4869 12.62270155489076
GLOBALSTAR M092 [+]     
1 38043U 11080D   22199.88173321 -.00000096  00000+0  44106-4 0  9998
2 38043  52.0088  95.4971 0000351  33.0252  45.1074 12.62262477487540
GLOBALSTAR M090 [+]     
1 38044U 11080E   22200.19248700 -.00000100  00000+0  19069-4 0  9996
2 38044  51.9904 359.4139 0001047  89.0624  81.6914 12.62265105489284
GLOBALSTAR M086 [+]     
1 38045U 11080F   22200.21869679 -.00000095  00000+0  47635-4 0  9997
2 38045  51.9923 359.8017 0001983 115.2147  55.2314 12.62277905489299
GLOBALSTAR M097 [+]     
1 39072U 13005A   22199.73313149 -.00000086  00000+0  98005-4 0  9994
2 39072  52.0046 274.7491 0000843 108.9924 251.1034 12.62264810436384
GLOBALSTAR M093 [+]     
1 39073U 13005B   22200.49789602 -.00000099  00000+0  27414-4 0  9992
2 39073  51.9800 267.4234 0000856 108.9288 251.1671 12.62264009436558
GLOBALSTAR M094 [+]     
1 39074U 13005C   22199.62716992 -.00000114  00000+0 -59055-4 0  9992
2 39074  51.9932 183.3938 0000207  74.7896 285.2994 12.62268364437934
GLOBALSTAR M096 [+]     
1 39075U 13005D   22200.11560651 -.00000111  00000+0 -40138-4 0  9998
2 39075  52.0048 229.5915 0000478 119.9736 240.1178 12.62269395437263
GLOBALSTAR M078 [+]     
1 39076U 13005E   22200.56390527 -.00000151  00000+0 -26617-3 0  9990
2 39076  51.9894 314.1812 0000770  40.9894 319.1031 12.62259832435809
GLOBALSTAR M095 [+]     
1 39077U 13005F   22200.03613074 -.00000089  00000+0  82936-4 0  9994
2 39077  51.9816 313.5141 0000950  74.0463 286.0508 12.62269700435741
GLOBALSTAR FM15 [+]     
1 52888U 22064A   22199.54168115 -.00000128  00000+0  00000+0 0  9999
2 52888  51.9751 127.9144 0009974  30.6386 329.5095 13.37539492  3893
